{"type": "FeatureCollection", "features": [ {"type": "Feature", "properties": {"norad_id": 43010, "name": "FENGYUN 3D", "group": "weather", "lat": 80.3863472372331, "lon": -166.52683444765364, "alt_km": 819.2474093931414, "timestamp": "2025-12-04T03:47:54.197582+00:00", "meta": {"OBJECT_NAME": "FENGYUN 3D", "OBJECT_ID": "2017-072A", "EPOCH": "2025-12-03T20:35:38.987232", "MEAN_MOTION": 14.19679577, "ECCENTRICITY": 6.16e-05, "INCLINATION": 98.9881, "RA_OF_ASC_NODE": 304.0359, "ARG_OF_PERICENTER": 218.4169, "MEAN_ANOMALY": 141.6963, "EPHEMERIS_TYPE": 0, "CLASSIFICATION_TYPE": "U", "NORAD_CAT_ID": 43010, "ELEMENT_SET_NO": 999, "REV_AT_EPOCH": 41727, "BSTAR": 0.00010443, "MEAN_MOTION_DOT": 1.75e-06, "MEAN_MOTION_DDOT": 0}, "tle": {"line1": "1 43010U 17072A   25337.85809013  .00000175  00000+0  10443-3 0  9996", "line2": "2 43010  98.9881 304.0359 0000616 218.4169 141.6963 14.19679577417278"}}, "geometry": {"type": "Point", "coordinates": [-166.52683444765364, 80.3863472372331]}}, {"type": "Feature", "properties": {"norad_id": 43013, "name": "NOAA 20 (JPSS-1)", "group": "weather", "lat": -69.00581663338718, "lon": 70.86243580812292, "alt_km": 835.519970222449, "timestamp": "2025-12-04T03:47:54.197593+00:00", "meta": {"OBJECT_NAME": "NOAA 20 (JPSS-1)", "OBJECT_ID": "2017-073A", "EPOCH": "2025-12-03T19:51:14.076864", "MEAN_MOTION": 14.19521831, "ECCENTRICITY": 0.0002064, "INCLINATION": 98.7586, "RA_OF_ASC_NODE": 274.2221, "ARG_OF_PERICENTER": 100.0404, "MEAN_ANOMALY": 260.1005, "EPHEMERIS_TYPE": 0, "CLASSIFICATION_TYPE": "U", "NORAD_CAT_ID": 43013, "ELEMENT_SET_NO": 999, "REV_AT_EPOCH": 41675, "BSTAR": 8.5218e-05, "MEAN_MOTION_DOT": 1.36e-06, "MEAN_MOTION_DDOT": 0}, "tle": {"line1": "1 43013U 17073A   25337.82724626  .00000136  00000+0  85218-4 0  9993", "line2": "2 43013  98.7586 274.2221 0002064 100.0404 260.1005 14.19521831416759"}}, "geometry": {"type": "Point", "coordinates": [70.86243580812292, -69.00581663338718]}}, {"type": "Feature", "properties": {"norad_id": 43226, "name": "GOES 17", "group": "weather", "lat": -0.2995741369543532, "lon": 40.72121937284834, "alt_km": 35795.60165251036, "timestamp": "2025-12-04T03:47:54.197605+00:00", "meta": {"OBJECT_NAME": "GOES 17", "OBJECT_ID": "2018-022A", "EPOCH": "2025-12-03T13:19:45.670080", "MEAN_MOTION": 1.00271328, "ECCENTRICITY": 0.0003423, "INCLINATION": 0.4342, "RA_OF_ASC_NODE": 89.3189, "ARG_OF_PERICENTER": 181.5531, "MEAN_ANOMALY": 272.2117, "EPHEMERIS_TYPE": 0, "CLASSIFICATION_TYPE": "U", "NORAD_CAT_ID": 43226, "ELEMENT_SET_NO": 999, "REV_AT_EPOCH": 2846, "BSTAR": 0, "MEAN_MOTION_DOT": -1.65e-06, "MEAN_MOTION_DDOT": 0}, "tle": {"line1": "1 43226U 18022A   25337.55538970 -.00000165  00000+0  00000+0 0  9993", "line2": "2 43226   0.4342  89.3189 0003423 181.5531 272.2117  1.00271328 28462"}}, "geometry": {"type": "Point", "coordinates": [40.72121937284834, -0.2995741369543532]}}, {"type": "Feature", "properties": {"norad_id": 43491, "name": "FENGYUN 2H", "group": "weather", "lat": 1.9639106635161578, "lon": -150.43858175214186, "alt_km": 35775.78038241699, "timestamp": "2025-12-04T03:47:54.197617+00:00", "meta": {"OBJECT_NAME": "FENGYUN 2H", "OBJECT_ID": "2018-050A", "EPOCH": "2025-12-03T20:13:37.295328", "MEAN_MOTION": 1.00271361, "ECCENTRICITY": 0.0002922, "INCLINATION": 2.5261, "RA_OF_ASC_NODE": 81.4292, "ARG_OF_PERICENTER": 162.7976, "MEAN_ANOMALY": 211.4639, "EPHEMERIS_TYPE": 0, "CLASSIFICATION_TYPE": "U", "NORAD_CAT_ID": 43491, "ELEMENT_SET_NO": 999, "REV_AT_EPOCH": 2748, "BSTAR": 0, "MEAN_MOTION_DOT": -1.14e-06, "MEAN_MOTION_DDOT": 0}, "tle": {"line1": "1 43491U 18050A   25337.84279277 -.00000114  00000+0  00000+0 0  9996", "line2": "2 43491   2.5261  81.4292 0002922 162.7976 211.4639  1.00271361 27486"}}, "geometry": {"type": "Point", "coordinates": [-150.43858175214186, 1.9639106635161578]}}, {"type": "Feature", "properties": {"norad_id": 43689, "name": "METOP-C", "group": "weather", "lat": -28.948826846419696, "lon": 40.91417256310927, "alt_km": 825.9792092373682, "timestamp": "2025-12-04T03:47:54.197635+00:00", "meta": {"OBJECT_NAME": "METOP-C", "OBJECT_ID": "2018-087A", "EPOCH": "2025-12-03T17:48:00.637056", "MEAN_MOTION": 14.21506294, "ECCENTRICITY": 0.0001692, "INCLINATION": 98.6943, "RA_OF_ASC_NODE": 35.6486, "ARG_OF_PERICENTER": 56.979, "MEAN_ANOMALY": 303.155, "EPHEMERIS_TYPE": 0, "CLASSIFICATION_TYPE": "U", "NORAD_CAT_ID": 43689, "ELEMENT_SET_NO": 999, "REV_AT_EPOCH": 36706, "BSTAR": 0.00012452, "MEAN_MOTION_DOT": 2.29e-06, "MEAN_MOTION_DDOT": 0}, "tle": {"line1": "1 43689U 18087A   25337.74167404  .00000229  00000+0  12452-3 0  9996", "line2": "2 43689  98.6943  35.6486 0001692  56.9790 303.1550 14.21506294367060"}}, "geometry": {"type": "Point", "coordinates": [40.91417256310927, -28.948826846419696]}}, {"type": "Feature", "properties": {"norad_id": 43823, "name": "GEO-KOMPSAT-2A", "group": "weather", "lat": 0.0010988864223654723, "lon": -101.54819667010017, "alt_km": 35785.01273837255, "timestamp": "2025-12-04T03:47:54.197647+00:00", "meta": {"OBJECT_NAME": "GEO-KOMPSAT-2A", "OBJECT_ID": "2018-100A", "EPOCH": "2025-12-03T17:35:40.685856", "MEAN_MOTION": 1.00269729, "ECCENTRICITY": 5.41e-05, "INCLINATION": 0.0596, "RA_OF_ASC_NODE": 121.241, "ARG_OF_PERICENTER": 95.287, "MEAN_ANOMALY": 248.4703, "EPHEMERIS_TYPE": 0, "CLASSIFICATION_TYPE": "U", "NORAD_CAT_ID": 43823, "ELEMENT_SET_NO": 999, "REV_AT_EPOCH": 2567, "BSTAR": 0, "MEAN_MOTION_DOT": -3.26e-06, "MEAN_MOTION_DDOT": 0}, "tle": {"line1": "1 43823U 18100A   25337.73310979 -.00000326  00000+0  00000+0 0  9999", "line2": "2 43823   0.0596 121.2410 0000541  95.2870 248.4703  1.00269729 25678"}}, "geometry": {"type": "Point", "coordinates": [-101.54819667010017, 0.0010988864223654723]}}, {"type": "Feature", "properties": {"norad_id": 44387, "name": "METEOR-M2 2", "group": "weather", "lat": -40.71974098473358, "lon": -34.46955934990488, "alt_km": 817.9676299834555, "timestamp": "2025-12-04T03:47:54.197657+00:00", "meta": {"OBJECT_NAME": "METEOR-M2 2", "OBJECT_ID": "2019-038A", "EPOCH": "2025-12-03T21:14:52.974240", "MEAN_MOTION": 14.24285378, "ECCENTRICITY": 9.02e-05, "INCLINATION": 98.8963, "RA_OF_ASC_NODE": 317.5062, "ARG_OF_PERICENTER": 166.7244, "MEAN_ANOMALY": 193.3958, "EPHEMERIS_TYPE": 0, "CLASSIFICATION_TYPE": "U", "NORAD_CAT_ID": 44387, "ELEMENT_SET_NO": 999, "REV_AT_EPOCH": 33349, "BSTAR": 0.00014204, "MEAN_MOTION_DOT": 2.82e-06, "MEAN_MOTION_DDOT": 0}, "tle": {"line1": "1 44387U 19038A   25337.88533535  .00000282  00000+0  14204-3 0  9992", "line2": "2 44387  98.8963 317.5062 0000902 166.7244 193.3958 14.24285378333490"}}, "geometry": {"type": "Point", "coordinates": [-34.46955934990488, -40.71974098473358]}}, {"type": "Feature", "properties": {"norad_id": 47719, "name": "ARKTIKA-M 1", "group": "weather", "lat": 42.645359470088536, "lon": 112.92083535531147, "alt_km": 22346.491708654732, "timestamp": "2025-12-04T03:47:54.197670+00:00", "meta": {"OBJECT_NAME": "ARKTIKA-M 1", "OBJECT_ID": "2021-016A", "EPOCH": "2025-12-01T02:41:41.634816", "MEAN_MOTION": 2.00613156, "ECCENTRICITY": 0.71974708, "INCLINATION": 63.1756, "RA_OF_ASC_NODE": 85.6045, "ARG_OF_PERICENTER": 269.084, "MEAN_ANOMALY": 15.7076, "EPHEMERIS_TYPE": 0, "CLASSIFICATION_TYPE": "U", "NORAD_CAT_ID": 47719, "ELEMENT_SET_NO": 999, "REV_AT_EPOCH": 3481, "BSTAR": 0, "MEAN_MOTION_DOT": -1.2e-07, "MEAN_MOTION_DDOT": 0}, "tle": {"line1": "1 47719U 21016A   25335.11228744 -.00000012  00000+0  00000+0 0  9997", "line2": "2 47719  63.1756  85.6045 7197470 269.0840  15.7076  2.00613156 34816"}}, "geometry": {"type": "Point", "coordinates": [112.92083535531147, 42.645359470088536]}}, {"type": "Feature", "properties": {"norad_id": 49008, "name": "FENGYUN 3E", "group": "weather", "lat": 53.2449116532904, "lon": -33.115791603563714, "alt_km": 820.7470980498429, "timestamp": "2025-12-04T03:47:54.197683+00:00", "meta": {"OBJECT_NAME": "FENGYUN 3E", "OBJECT_ID": "2021-062A", "EPOCH": "2025-12-03T20:46:45.397344", "MEAN_MOTION": 14.1987807, "ECCENTRICITY": 7.4e-05, "INCLINATION": 98.7476, "RA_OF_ASC_NODE": 338.4922, "ARG_OF_PERICENTER": 322.7064, "MEAN_ANOMALY": 37.406, "EPHEMERIS_TYPE": 0, "CLASSIFICATION_TYPE": "U", "NORAD_CAT_ID": 49008, "ELEMENT_SET_NO": 999, "REV_AT_EPOCH": 22886, "BSTAR": 4.5059e-05, "MEAN_MOTION_DOT": 5.2e-07, "MEAN_MOTION_DDOT": 0}, "tle": {"line1": "1 49008U 21062A   25337.86580321  .00000052  00000+0  45059-4 0  9998", "line2": "2 49008  98.7476 338.4922 0000740 322.7064  37.4060 14.19878070228861"}}, "geometry": {"type": "Point", "coordinates": [-33.115791603563714, 53.2449116532904]}}, {"type": "Feature", "properties": {"norad_id": 51850, "name": "GOES 18", "group": "weather", "lat": -0.001347039215165978, "lon": -6.806994370598273, "alt_km": 35784.88270094051, "timestamp": "2025-12-04T03:47:54.197695+00:00", "meta": {"OBJECT_NAME": "GOES 18", "OBJECT_ID": "2022-021A", "EPOCH": "2025-12-03T16:30:38.739168", "MEAN_MOTION": 1.00270453, "ECCENTRICITY": 7.98e-05, "INCLINATION": 0.0031, "RA_OF_ASC_NODE": 64.4496, "ARG_OF_PERICENTER": 225.9944, "MEAN_ANOMALY": 252.9877, "EPHEMERIS_TYPE": 0, "CLASSIFICATION_TYPE": "U", "NORAD_CAT_ID": 51850, "ELEMENT_SET_NO": 999, "REV_AT_EPOCH": 463, "BSTAR": 0, "MEAN_MOTION_DOT": 1.14e-06, "MEAN_MOTION_DDOT": 0}, "tle": {"line1": "1 51850U 22021A   25337.68794837  .00000114  00000+0  00000+0 0  9992", "line2": "2 51850   0.0031  64.4496 0000798 225.9944 252.9877  1.00270453  4632"}}, "geometry": {"type": "Point", "coordinates": [-6.806994370598273, -0.001347039215165978]}}]}